*******************************************************************************
 Revised: May 13, 2021           Hubble Space Telescope                     -48
                                 http://hubblesite.org
 
 BACKGROUND:
  Launched: April 24, 1990 [from space shuttle Discovery (STS-31)]
  Deployed: April 25, 1990
 
  NOTE: HST ephemeris data can be unreliable during times of the following
        space shuttle servicing missions
 
         Servicing Mission 1 : 1993 (December 02-14)
         Servicing Mission 2 : 1997 (February 11-21)
         Servicing Mission 3A: 1999 (December 19-28)
         Servicing Mission 3B: 2002 (March    01-12)
         Servicing Mission 4 : 2009 (May      11-25)
 
 HUBBLE SPACE TELESCOPE:
   Length          : 43.5 ft (13.2 m)   Weight      : 24,500 lb (11,110 kg)
   Maximum Diameter: 14 ft (4.2 m)      Data return : ~120 Gigabytes (GB)/week
 
 Generic orbit facts:
   Altitude     : 569 km, or 353 miles  Inclination  : 28.5 deg. to equator
   Orbit period : 97 minutes            Orbital speed: 28,000 kph (17500 mph)
 
 SPACECRAFT TRAJECTORY:
   The trajectory here is a concatenation of publicly released JSpOC two-line
   elements. These can usually only be propagated reliably "days" into the
   future, and are updated frequently to maintain accuracy.
*******************************************************************************
 
 
*******************************************************************************
Ephemeris / WWW_USER Thu May 13 07:25:48 2021 Pasadena, USA      / Horizons
*******************************************************************************
Target body name: Hubble Space Telescope (-48)    {source: hst}
Center body name: Solar System Barycenter (0)     {source: DE441}
Center-site name: BODY CENTER
*******************************************************************************
Start time      : A.D. 2021-Jan-19 19:04:56.9924 TDB
Stop  time      : A.D. 2021-Jan-20 02:39:20.9438 TDB
Step-size       : 5 minutes
*******************************************************************************
Center geodetic : 0.00000000,0.00000000,0.0000000 {E-lon(deg),Lat(deg),Alt(km)}
Center cylindric: 0.00000000,0.00000000,0.0000000 {E-lon(deg),Dxy(km),Dz(km)}
Center radii    : (undefined)                                                  
Output units    : KM-S
Output type     : GEOMETRIC cartesian states
Output format   : 3 (position, velocity, LT, range, range-rate)
Reference frame : ICRF
*******************************************************************************
JDTDB
   X     Y     Z
   VX    VY    VZ
   LT    RG    RR
*******************************************************************************
$$SOE
2459234.461770745 = A.D. 2021-Jan-19 23:04:56.9924 TDB 
 X =-7.420431865640068E+07 Y = 1.179827984854865E+08 Z = 5.116520615855551E+07
 VX=-3.179120355077126E+01 VY=-8.481312552411451E+00 VZ=-5.145786711414514E+00
 LT= 4.952511389578663E+02 RG= 1.484725562754783E+08 RR= 7.375843714975692E+00
2459234.465242967 = A.D. 2021-Jan-19 23:09:56.9924 TDB 
 X =-7.421406748083042E+07 Y = 1.179800007818889E+08 Z = 5.116348498651218E+07
 VX=-3.308920192207545E+01 VY=-1.024967186354866E+01 VZ=-6.332468028033984E+00
 LT= 4.952579981831764E+02 RG= 1.484746126194940E+08 RR= 6.212757997491884E+00
2459234.468715189 = A.D. 2021-Jan-19 23:14:56.9924 TDB 
 X =-7.422409925362192E+07 Y = 1.179766112438475E+08 Z = 5.116141086537538E+07
 VX=-3.366039747535041E+01 VY=-1.239117081961146E+01 VZ=-7.477409140791570E+00
 LT= 4.952633572083605E+02 RG= 1.484762192148264E+08 RR= 4.404675325673360E+00
2459234.472187412 = A.D. 2021-Jan-19 23:19:56.9924 TDB 
 X =-7.423418459667517E+07 Y = 1.179725517278427E+08 Z = 5.115901511345518E+07
 VX=-3.344302122809695E+01 VY=-1.467572649766082E+01 VZ=-8.457167832369183E+00
 LT= 4.952666628073447E+02 RG= 1.484772102084710E+08 RR= 2.145932904635975E+00
2459234.475659634 = A.D. 2021-Jan-19 23:24:56.9924 TDB 
 X =-7.424408824629329E+07 Y = 1.179678161259095E+08 Z = 5.115636375510163E+07
 VX=-3.246003324154128E+01 VY=-1.685748866340223E+01 VZ=-9.165917797376645E+00
 LT= 4.952675825781674E+02 RG= 1.484774859488268E+08 RR=-3.203891500061418E-01
2459234.479131856 = A.D. 2021-Jan-19 23:29:56.9924 TDB 
 X =-7.425359440017760E+07 Y = 1.179624711560588E+08 Z = 5.115355044789550E+07
 VX=-3.081711955094541E+01 VY=-1.870123871068265E+01 VZ=-9.526979679206100E+00
 LT= 4.952660411224361E+02 RG= 1.484770238320242E+08 RR=-2.728376832017015E+00
2459234.482604078 = A.D. 2021-Jan-19 23:34:56.9924 TDB 
 X =-7.426253009292534E+07 Y = 1.179566492615221E+08 Z = 5.115068636648951E+07
 VX=-2.869158666117798E+01 VY=-2.000809992327648E+01 VZ=-9.501355368384033E+00
 LT= 4.952622285716128E+02 RG= 1.484758808580416E+08 RR=-4.818152629036473E+00
2459234.486076300 = A.D. 2021-Jan-19 23:39:56.9924 TDB 
 X =-7.427078396554418E+07 Y = 1.179505342843937E+08 Z = 5.114788812675504E+07
 VX=-2.631302101158825E+01 VY=-2.063747315475092E+01 VZ=-9.092102714176191E+00
 LT= 4.952565800795838E+02 RG= 1.484741874827323E+08 RR=-6.364433807201385E+00
2459234.489548523 = A.D. 2021-Jan-19 23:44:56.9924 TDB 
 X =-7.427831826005106E+07 Y = 1.179443414901459E+08 Z = 5.114526511256300E+07
 VX=-2.393794082515674E+01 VY=-2.052234730792645E+01 VZ=-8.343899772872387E+00
 LT= 4.952497283990415E+02 RG= 1.484721334005811E+08 RR=-7.201187815061191E+00
2459234.493020745 = A.D. 2021-Jan-19 23:49:56.9924 TDB 
 X =-7.428517270724693E+07 Y = 1.179382942427005E+08 Z = 5.114290765089963E+07
 VX=-2.182168897218052E+01 VY=-1.967612423166497E+01 VZ=-7.337900846606089E+00
 LT= 4.952424350577364E+02 RG= 1.484699469118642E+08 RR=-7.239324879096608E+00
2459234.496492967 = A.D. 2021-Jan-19 23:54:56.9924 TDB 
 X =-7.429146000599816E+07 Y = 1.179325999797024E+08 Z = 5.114087734111644E+07
 VX=-2.019103829960022E+01 VY=-1.819050199204944E+01 VZ=-6.182695430282299E+00
 LT= 4.952355081317634E+02 RG= 1.484678702717003E+08 RR=-6.475609486565287E+00
2459234.499965189 = A.D. 2021-Jan-19 23:59:56.9924 TDB 
 X =-7.429735356659700E+07 Y = 1.179274280785796E+08 Z = 5.113920053184892E+07
 VX=-1.922042718878991E+01 VY=-1.622519358578511E+01 VZ=-5.002588372896208E+00
 LT= 4.952297157255192E+02 RG= 1.484661337519946E+08 RR=-4.992363082075775E+00
2459234.503437412 = A.D. 2021-Jan-20 00:04:56.9924 TDB 
 X =-7.430306893732475E+07 Y = 1.179228918536521E+08 Z = 5.113786555503016E+07
 VX=-1.901388138568460E+01 VY=-1.399093997450120E+01 VZ=-3.924481802780341E+00
 LT= 4.952257041510484E+02 RG= 1.484649311122236E+08 RR=-2.948521120117274E+00
2459234.506909634 = A.D. 2021-Jan-20 00:09:56.9924 TDB 
 X =-7.430884084034854E+07 Y = 1.179190364465234E+08 Z = 5.113682395518952E+07
 VX=-1.959401398581124E+01 VY=-1.172749419152964E+01 VZ=-3.064541583799250E+00
 LT= 4.952239289607800E+02 RG= 1.484643989235696E+08 RR=-5.630795825961002E-01
2459234.510381856 = A.D. 2021-Jan-20 00:14:56.9924 TDB 
 X =-7.431489810275805E+07 Y = 1.179158338487250E+08 Z = 5.113599560754690E+07
 VX=-2.089914934002898E+01 VY=-9.678415089051306E+00 VZ=-2.515802279316322E+00
 LT= 4.952246058118412E+02 RG= 1.484646018384129E+08 RR= 1.907739018373555E+00
2459234.513854078 = A.D. 2021-Jan-20 00:19:56.9924 TDB 
 X =-7.432143903677727E+07 Y = 1.179131856901005E+08 Z = 5.113527726092198E+07
 VX=-2.278926644523376E+01 VY=-8.064922756830949E+00 VZ=-2.337952916970814E+00
 LT= 4.952276865753689E+02 RG= 1.484655254280834E+08 RR= 4.197731896145762E+00
2459234.517326300 = A.D. 2021-Jan-20 00:24:56.9924 TDB 
 X =-7.432860993098393E+07 Y = 1.179109336667297E+08 Z = 5.113455365761808E+07
 VX=-2.506069168473608E+01 VY=-7.061621447760272E+00 VZ=-2.550571737613013E+00
 LT= 4.952328638289273E+02 RG= 1.484670775296534E+08 RR= 6.059671048449897E+00
2459234.520798523 = A.D. 2021-Jan-20 00:29:56.9924 TDB 
 X =-7.433648911478627E+07 Y = 1.179088765899148E+08 Z = 5.113371003264102E+07
 VX=-2.746822656752996E+01 VY=-6.777132099420323E+00 VZ=-3.130812880072007E+00
 LT= 4.952396037674978E+02 RG= 1.484690981124042E+08 RR= 7.292543894216965E+00
2459234.524270745 = A.D. 2021-Jan-20 00:34:56.9924 TDB 
 X =-7.434507846176237E+07 Y = 1.179067921769196E+08 Z = 5.113264458060511E+07
 VX=-2.975208598740792E+01 VY=-7.242194608981666E+00 VZ=-4.015938396626723E+00
 LT= 4.952472040429423E+02 RG= 1.484713766176612E+08 RR= 7.763595300560445E+00
2459234.527742967 = A.D. 2021-Jan-20 00:39:56.9924 TDB 
 X =-7.435430327398346E+07 Y = 1.179044610990109E+08 Z = 5.113127947489610E+07
 VX=-3.166623865212152E+01 VY=-8.406630129870091E+00 VZ=-5.110324080391260E+00
 LT= 4.952548698926379E+02 RG= 1.484736747815841E+08 RR= 7.422490956895579E+00
2459234.531215189 = A.D. 2021-Jan-20 00:44:56.9924 TDB 
 X =-7.436402045310141E+07 Y = 1.179016905956147E+08 Z = 5.112956923267684E+07
 VX=-3.300479176742704E+01 VY=-1.014516490356615E+01 VZ=-6.295945194475569E+00
 LT= 4.952617998843046E+02 RG= 1.484757523408198E+08 RR= 6.306268438271134E+00
2459234.534687412 = A.D. 2021-Jan-20 00:49:56.9924 TDB 
 X =-7.437403394740601E+07 Y = 1.178983351353578E+08 Z = 5.112750557059320E+07
 VX=-3.362374048284373E+01 VY=-1.227105312626257E+01 VZ=-7.445057220400058E+00
 LT= 4.952672719399664E+02 RG= 1.484773928218369E+08 RR= 4.535028968783754E+00
2459234.538159634 = A.D. 2021-Jan-20 00:54:56.9924 TDB 
 X =-7.438411578332639E+07 Y = 1.178943120164858E+08 Z = 5.112511829022466E+07
 VX=-3.345619575492381E+01 VY=-1.455590105966915E+01 VZ=-8.433776465724517E+00
 LT= 4.952707207164941E+02 RG= 1.484784267390293E+08 RR= 2.299147327649731E+00
2459234.541631856 = A.D. 2021-Jan-20 00:59:56.9924 TDB 
 X =-7.439403051517327E+07 Y = 1.178896103176013E+08 Z = 5.112247211053757E+07
 VX=-3.251975385314422E+01 VY=-1.675385191712400E+01 VZ=-9.155319843458329E+00
 LT= 4.952717984402951E+02 RG= 1.484787498324966E+08 RR=-1.607778669943787E-01
